[{"OBJECT_NAME":"STARLINK-3052","OBJECT_ID":"2021-082AM","EPOCH":"2026-03-09T22:32:34.625760","MEAN_MOTION":14.98329484,"ECCENTRICITY":0.00024335,"INCLINATION":69.9986,"RA_OF_ASC_NODE":293.8413,"ARG_OF_PERICENTER":267.9124,"MEAN_ANOMALY":92.1757,"EPHEMERIS_TYPE":0,"CLASSIFICATION_TYPE":"U","NORAD_CAT_ID":49165,"ELEMENT_SET_NO":999,"REV_AT_EPOCH":24721,"BSTAR":-0.00014180098,"MEAN_MOTION_DOT":-1.784e-5,"MEAN_MOTION_DDOT":0},{"OBJECT_NAME":"CURIUM ONE","OBJECT_ID":"2024-128H","EPOCH":"2026-03-09T16:29:14.303904","MEAN_MOTION":15.10847276,"ECCENTRICITY":0.00508907,"INCLINATION":61.979,"RA_OF_ASC_NODE":197.7537,"ARG_OF_PERICENTER":110.7183,"MEAN_ANOMALY":249.9377,"EPHEMERIS_TYPE":0,"CLASSIFICATION_TYPE":"U","NORAD_CAT_ID":60242,"ELEMENT_SET_NO":999,"REV_AT_EPOCH":9141,"BSTAR":0.00074106619,"MEAN_MOTION_DOT":0.00012574,"MEAN_MOTION_DDOT":0}]
